DO-64
1 32789U 08021G   14268.15305899  .00007395  00000-0  69091-3 0   859
2 32789 097.7108 327.4015 0012024 186.3709 226.7123 14.94384763347420
CO-66
1 32791U 08021J   14267.19228593  .00002474  00000-0  28222-3 0   371
2 32791 097.6902 316.4136 0013835 212.7347 147.3013 14.86931263346765
RS-30
1 32953U 08025A   14268.51685680  .00000010  00000-0  00000 0 0  3328
2 32953 082.5097 138.8481 0018105 302.1972 057.7350 12.43050448287721
METEOR-M
1 35865U 09049A   14268.14659654 -.00000006  00000-0  16559-4 0  9313
2 35865 098.5404 312.4774 0002509 144.9869 215.1478 14.21929667260546
RS-38
1 35869U 09049E   14269.00608906  .00000114  00000-0  51474-4 0  8398
2 35869 098.5315 313.0607 0004566 151.8830 208.3080 14.22228126260763
JUGNU
1 37839U 11058B   14266.67679907  .00000405  00000-0  74392-4 0  7025
2 37839 019.9625 018.0076 0019263 349.9989 149.7021 14.12338546152490
SRMSAT
1 37841U 11058D   14267.79927078  .00000399  00000-0  74995-4 0  7040
2 37841 019.9731 032.5260 0011950 299.2033 191.3962 14.10375823152437
RAX-2
1 37853U 11061D   14267.19669519  .00009528  00000-0  63938-3 0  9177
2 37853 101.7058 344.1088 0213081 130.2002 288.7563 14.90520113157403
AUBIESAT
1 37854U 11061E   14268.16538150  .00012770  00000-0  82501-3 0  9150
2 37854 101.7088 347.7608 0210503 124.0438 294.6310 14.92014704157619
HRBE
1 37855U 11061F   14267.25252705  .00010082  00000-0  66240-3 0  9313
2 37855 101.7103 345.6129 0212974 128.2441 233.8143 14.91221131157439
RS-39
1 38051U 11062C   14268.47285690  .00388688  00000-0  16172-2 0  9584
2 38051 051.6190 071.7968 0010482 275.7549 179.8995 15.84060084149854
E-STAR
1 38079U 12006C   14268.87304241  .00162115  00000-0  14838-2 0  9897
2 38079 069.4433 083.3343 0314863 208.5054 149.9041 15.24289816138726
GOLIAT
1 38085U 12006J   14268.89854427  .00131179  00000-0  13160-2 0  3945
2 38085 069.4490 092.9794 0343884 213.1573 144.8084 15.16649518138445
HORYU-2
1 38340U 12025D   14267.42446287  .00001863  00000-0  29933-3 0  9778
2 38340 098.2700 226.3736 0011469 215.9098 144.1345 14.72812208126400
RS-40
1 38735U 12041C   14268.93272073 -.00000020  00000-0  10000-3 0  6958
2 38735 082.4753 224.7173 0017547 037.1847 323.0840 12.42560592 98099
PROITERES
1 38756U 12047B   14268.85999084 -.00000010  00000-0  00000 0 0  2462
2 38756 098.2255 358.7979 0013890 066.2077 294.1095 14.75098251110025
BEESAT-3
1 39134U 13015E   14269.07199685  .00010016  00000-0  66752-3 0  7217
2 39134 064.8752 179.0100 0034849 290.1970 069.5903 15.06349249 78851
