Satellite: DO-64
Catalog number: 32789
Epoch time:      14268.15305899
Element set:      85
Inclination:      097.7108 deg
RA of node:       327.4015 deg
Eccentricity:    0.0012024
Arg of perigee:   186.3709 deg
Mean anomaly:     226.7123 deg
Mean motion:   14.94384763 rev/day
Decay rate:      7.395e-05 rev/day^2
Epoch rev:           34742
Checksum:              335

Satellite: CO-66
Catalog number: 32791
Epoch time:      14267.19228593
Element set:      37
Inclination:      097.6902 deg
RA of node:       316.4136 deg
Eccentricity:    0.0013835
Arg of perigee:   212.7347 deg
Mean anomaly:     147.3013 deg
Mean motion:   14.86931263 rev/day
Decay rate:      2.474e-05 rev/day^2
Epoch rev:           34676
Checksum:              320

Satellite: RS-30
Catalog number: 32953
Epoch time:      14268.51685680
Element set:     332
Inclination:      082.5097 deg
RA of node:       138.8481 deg
Eccentricity:    0.0018105
Arg of perigee:   302.1972 deg
Mean anomaly:     057.7350 deg
Mean motion:   12.43050448 rev/day
Decay rate:        1.0e-07 rev/day^2
Epoch rev:           28772
Checksum:              292

Satellite: METEOR-M
Catalog number: 35865
Epoch time:      14268.14659654
Element set:     931
Inclination:      098.5404 deg
RA of node:       312.4774 deg
Eccentricity:    0.0002509
Arg of perigee:   144.9869 deg
Mean anomaly:     215.1478 deg
Mean motion:   14.21929667 rev/day
Decay rate:       -6.0e-08 rev/day^2
Epoch rev:           26054
Checksum:              327

Satellite: RS-38
Catalog number: 35869
Epoch time:      14269.00608906
Element set:     839
Inclination:      098.5315 deg
RA of node:       313.0607 deg
Eccentricity:    0.0004566
Arg of perigee:   151.8830 deg
Mean anomaly:     208.3080 deg
Mean motion:   14.22228126 rev/day
Decay rate:       1.14e-06 rev/day^2
Epoch rev:           26076
Checksum:              299

Satellite: JUGNU
Catalog number: 37839
Epoch time:      14266.67679907
Element set:     702
Inclination:      019.9625 deg
RA of node:       018.0076 deg
Eccentricity:    0.0019263
Arg of perigee:   349.9989 deg
Mean anomaly:     149.7021 deg
Mean motion:   14.12338546 rev/day
Decay rate:       4.05e-06 rev/day^2
Epoch rev:           15249
Checksum:              335

Satellite: SRMSAT
Catalog number: 37841
Epoch time:      14267.79927078
Element set:     704
Inclination:      019.9731 deg
RA of node:       032.5260 deg
Eccentricity:    0.0011950
Arg of perigee:   299.2033 deg
Mean anomaly:     191.3962 deg
Mean motion:   14.10375823 rev/day
Decay rate:       3.99e-06 rev/day^2
Epoch rev:           15243
Checksum:              305

Satellite: RAX-2
Catalog number: 37853
Epoch time:      14267.19669519
Element set:     917
Inclination:      101.7058 deg
RA of node:       344.1088 deg
Eccentricity:    0.0213081
Arg of perigee:   130.2002 deg
Mean anomaly:     288.7563 deg
Mean motion:   14.90520113 rev/day
Decay rate:      9.528e-05 rev/day^2
Epoch rev:           15740
Checksum:              299

Satellite: AUBIESAT
Catalog number: 37854
Epoch time:      14268.16538150
Element set:     915
Inclination:      101.7088 deg
RA of node:       347.7608 deg
Eccentricity:    0.0210503
Arg of perigee:   124.0438 deg
Mean anomaly:     294.6310 deg
Mean motion:   14.92014704 rev/day
Decay rate:     1.2770e-04 rev/day^2
Epoch rev:           15761
Checksum:              286

Satellite: HRBE
Catalog number: 37855
Epoch time:      14267.25252705
Element set:     931
Inclination:      101.7103 deg
RA of node:       345.6129 deg
Eccentricity:    0.0212974
Arg of perigee:   128.2441 deg
Mean anomaly:     233.8143 deg
Mean motion:   14.91221131 rev/day
Decay rate:     1.0082e-04 rev/day^2
Epoch rev:           15743
Checksum:              266

Satellite: RS-39
Catalog number: 38051
Epoch time:      14268.47285690
Element set:     958
Inclination:      051.6190 deg
RA of node:       071.7968 deg
Eccentricity:    0.0010482
Arg of perigee:   275.7549 deg
Mean anomaly:     179.8995 deg
Mean motion:   15.84060084 rev/day
Decay rate:    3.88688e-03 rev/day^2
Epoch rev:           14985
Checksum:              386

Satellite: E-STAR
Catalog number: 38079
Epoch time:      14268.87304241
Element set:     989
Inclination:      069.4433 deg
RA of node:       083.3343 deg
Eccentricity:    0.0314863
Arg of perigee:   208.5054 deg
Mean anomaly:     149.9041 deg
Mean motion:   15.24289816 rev/day
Decay rate:    1.62115e-03 rev/day^2
Epoch rev:           13872
Checksum:              323

Satellite: GOLIAT
Catalog number: 38085
Epoch time:      14268.89854427
Element set:     394
Inclination:      069.4490 deg
RA of node:       092.9794 deg
Eccentricity:    0.0343884
Arg of perigee:   213.1573 deg
Mean anomaly:     144.8084 deg
Mean motion:   15.16649518 rev/day
Decay rate:    1.31179e-03 rev/day^2
Epoch rev:           13844
Checksum:              355

Satellite: HORYU-2
Catalog number: 38340
Epoch time:      14267.42446287
Element set:     977
Inclination:      098.2700 deg
RA of node:       226.3736 deg
Eccentricity:    0.0011469
Arg of perigee:   215.9098 deg
Mean anomaly:     144.1345 deg
Mean motion:   14.72812208 rev/day
Decay rate:      1.863e-05 rev/day^2
Epoch rev:           12640
Checksum:              307

Satellite: RS-40
Catalog number: 38735
Epoch time:      14268.93272073
Element set:     695
Inclination:      082.4753 deg
RA of node:       224.7173 deg
Eccentricity:    0.0017547
Arg of perigee:   037.1847 deg
Mean anomaly:     323.0840 deg
Mean motion:   12.42560592 rev/day
Decay rate:       -2.0e-07 rev/day^2
Epoch rev:            9809
Checksum:              309

Satellite: PROITERES
Catalog number: 38756
Epoch time:      14268.85999084
Element set:     246
Inclination:      098.2255 deg
RA of node:       358.7979 deg
Eccentricity:    0.0013890
Arg of perigee:   066.2077 deg
Mean anomaly:     294.1095 deg
Mean motion:   14.75098251 rev/day
Decay rate:       -1.0e-07 rev/day^2
Epoch rev:           11002
Checksum:              330

Satellite: BEESAT-3
Catalog number: 39134
Epoch time:      14269.07199685
Element set:     721
Inclination:      064.8752 deg
RA of node:       179.0100 deg
Eccentricity:    0.0034849
Arg of perigee:   290.1970 deg
Mean anomaly:     069.5903 deg
Mean motion:   15.06349249 rev/day
Decay rate:     1.0016e-04 rev/day^2
Epoch rev:            7885
Checksum:              325

